{"type":"FeatureCollection","properties":{"id":"socal","name":"Southern California","source":"U.S. Census Bureau TIGERweb, simplified to ~50 m"},"features":[{"type":"Feature","properties":{"county":"Imperial","geoid":"06025"},"geometry":{"type":"Polygon","coordinates":[[[-114.72652,32.71827],[-114.7195,32.71874],[-114.7177,32.72155],[-114.71452,32.73039],[-114.70907,32.73546],[-114.70572,32.74158],[-114.70158,32.74563],[-114.69879,32.74485],[-114.68823,32.73753],[-114.68261,32.73735],[-114.66592,32.73403],[-114.65425,32.73357],[-114.63501,32.73137],[-114.6174,32.72826],[-114.61567,32.72845],[-114.61511,32.73452],[-114.58178,32.73495],[-114.58174,32.74232],[-114.56451,32.74227],[-114.56445,32.74955],[-114.53922,32.74981],[-114.53909,32.75695],[-114.52686,32.75709],[-114.52844,32.76728],[-114.53243,32.77692],[-114.53167,32.79119],[-114.52963,32.79548],[-114.52203,32.80167],[-114.51539,32.81144],[-114.51033,32.81649],[-114.49412,32.82329],[-114.46897,32.84516],[-114.46571,32.87368],[-114.46293,32.90794],[-114.46445,32.91313],[-114.47664,32.92363],[-114.479,32.92829],[-114.48092,32.93628],[-114.47846,32.94055],[-114.47077,32.94942],[-114.46854,32.95392],[-114.46727,32.96017],[-114.46838,32.97074],[-114.47051,32.97386],[-114.47539,32.97516],[-114.47992,32.9736],[-114.48131,32.97206],[-114.48862,32.96995],[-114.49013,32.96988],[-114.49294,32.97178],[-114.49571,32.98007],[-114.4998,33.0039],[-114.50636,33.0174],[-114.51134,33.02345],[-114.52013,33.02998],[-114.52358,33.03096],[-114.53846,33.03342],[-114.5648,33.03508],[-114.57165,33.03662],[-114.57516,33.03654],[-114.57829,33.03538],[-114.58477,33.02823],[-114.58978,33.02623],[-114.60101,33.02541],[-114.61879,33.0272],[-114.62579,33.02944],[-114.62829,33.03105],[-114.63955,33.04529],[-114.64598,33.0489],[-114.649,33.04676],[-114.65783,33.03382],[-114.65983,33.03266],[-114.66232,33.03267],[-114.6708,33.03798],[-114.67366,33.0419],[-114.6751,33.04753],[-114.6743,33.05717],[-114.68699,33.07097],[-114.68912,33.07612],[-114.68902,33.08404],[-114.69463,33.08623],[-114.70473,33.08705],[-114.70649,33.08816],[-114.70782,33.0911],[-114.7079,33.09743],[-114.70617,33.10533],[-114.70368,33.11377],[-114.69691,33.13112],[-114.69025,33.13772],[-114.6874,33.14198],[-114.68276,33.15481],[-114.67994,33.15906],[-114.67935,33.16243],[-114.68089,33.16907],[-114.67583,33.18152],[-114.67536,33.18549],[-114.67519,33.18818],[-114.67875,33.20345],[-114.67372,33.21925],[-114.67363,33.22312],[-114.67448,33.2255],[-114.6781,33.2303],[-114.68273,33.23492],[-114.68954,33.24643],[-114.68821,33.24796],[-114.68325,33.25003],[-114.67766,33.25443],[-114.67449,33.2556],[-114.67209,33.2585],[-114.67703,33.27017],[-114.68051,33.27358],[-114.68436,33.27602],[-114.69445,33.27979],[-114.7112,33.28334],[-114.72167,33.28698],[-114.72326,33.28808],[-114.73122,33.30243],[-114.73122,33.30404],[-114.7299,33.30574],[-114.72466,33.3101],[-114.72362,33.31211],[-114.71068,33.32045],[-114.70787,33.32332],[-114.70094,33.33701],[-114.69804,33.35244],[-114.69906,33.36115],[-114.70735,33.37663],[-114.70731,33.38254],[-114.7136,33.38826],[-114.72287,33.39878],[-114.72529,33.40234],[-114.72554,33.40406],[-114.72383,33.40653],[-114.72007,33.40789],[-114.71088,33.40725],[-114.70179,33.40838],[-114.69771,33.41094],[-114.69566,33.41513],[-114.68795,33.41793],[-114.67369,33.41916],[-114.65825,33.41302],[-114.64954,33.41363],[-114.6433,33.41675],[-114.63518,33.42272],[-114.62964,33.42814],[-114.62713,33.43355],[-114.83087,33.43371],[-114.83083,33.43009],[-115.0008,33.42942],[-115.0632,33.4281],[-115.12581,33.42905],[-115.25167,33.42821],[-115.46751,33.4284],[-115.46751,33.42699],[-115.46837,33.42699],[-115.68292,33.4274],[-116.0849,33.42593],[-116.08521,33.33922],[-116.08224,33.25108],[-116.08117,33.19084],[-116.0812,33.07486],[-116.10334,33.07483],[-116.1037,32.88897],[-116.10284,32.86877],[-116.10358,32.81442],[-116.10299,32.72635],[-116.10558,32.72635],[-116.10618,32.61844],[-115.47361,32.66656],[-115.11705,32.69179],[-114.72652,32.71827]]]}},{"type":"Feature","properties":{"county":"Los Angeles","geoid":"06037"},"geometry":{"type":"MultiPolygon","coordinates":[[[[-118.02878,33.87332],[-118.01138,33.87343],[-118.01147,33.88085],[-118.00275,33.88089],[-118.00286,33.88816],[-117.99406,33.88822],[-117.99414,33.89551],[-117.98533,33.89551],[-117.9854,33.90277],[-117.97659,33.90281],[-117.9765,33.94605],[-117.91956,33.94608],[-117.91956,33.94764],[-117.91141,33.94607],[-117.87195,33.94573],[-117.85197,33.94693],[-117.78308,33.94626],[-117.79355,33.95382],[-117.79367,33.96814],[-117.80244,33.96831],[-117.80254,33.97555],[-117.78503,34.00485],[-117.76753,34.00469],[-117.76705,34.01119],[-117.76766,34.02351],[-117.73585,34.01855],[-117.73012,34.02137],[-117.72736,34.03739],[-117.71648,34.06758],[-117.6868,34.13812],[-117.68171,34.15583],[-117.6785,34.16199],[-117.64637,34.28917],[-117.65976,34.45277],[-117.6604,34.55789],[-117.66712,34.55791],[-117.66746,34.82253],[-117.77493,34.8233],[-117.98768,34.82262],[-118.20411,34.82016],[-118.30865,34.82006],[-118.48454,34.81821],[-118.85401,34.81776],[-118.85411,34.80328],[-118.87212,34.80317],[-118.87672,34.8032],[-118.88332,34.80937],[-118.88416,34.81349],[-118.88042,34.81784],[-118.89463,34.81797],[-118.81587,34.65541],[-118.63679,34.2918],[-118.63255,34.26343],[-118.63249,34.24039],[-118.66771,34.24034],[-118.66815,34.16819],[-118.78889,34.16821],[-118.94097,34.07483],[-118.95172,33.99286],[-118.94044,33.99145],[-118.93165,33.99211],[-118.89726,33.9878],[-118.8873,33.98722],[-118.874,33.98331],[-118.85685,33.96597],[-118.85279,33.96257],[-118.84112,33.95537],[-118.82489,33.94904],[-118.80983,33.9469],[-118.79773,33.94821],[-118.78653,33.95143],[-118.77904,33.95453],[-118.76428,33.96361],[-118.75441,33.96779],[-118.74639,33.9755],[-118.73553,33.97704],[-118.72746,33.98031],[-118.70457,33.97784],[-118.68914,33.97995],[-118.68081,33.97916],[-118.66651,33.98056],[-118.65016,33.98512],[-118.64835,33.98673],[-118.64394,33.9858],[-118.63307,33.98565],[-118.62632,33.98646],[-118.62592,33.98723],[-118.60439,33.98628],[-118.59408,33.98807],[-118.58658,33.98701],[-118.57602,33.98752],[-118.56969,33.98881],[-118.55736,33.98767],[-118.54842,33.97997],[-118.53347,33.96179],[-118.52345,33.95305],[-118.50863,33.93252],[-118.50091,33.91862],[-118.47682,33.88951],[-118.4582,33.86526],[-118.44725,33.84876],[-118.44397,33.83906],[-118.45054,33.83227],[-118.46915,33.81868],[-118.48448,33.80315],[-118.48777,33.77987],[-118.48558,33.75366],[-118.46696,33.72552],[-118.42864,33.70127],[-118.38593,33.68671],[-118.37717,33.67895],[-118.34541,33.66343],[-118.31913,33.65955],[-118.27424,33.66343],[-118.25453,33.67507],[-118.23701,33.69059],[-118.19211,33.69059],[-118.16583,33.69156],[-118.14781,33.69408],[-118.11406,33.74614],[-118.09197,33.75847],[-118.09233,33.76453],[-118.09706,33.77372],[-118.09698,33.77791],[-118.09427,33.78418],[-118.08623,33.79688],[-118.08474,33.80291],[-118.07283,33.81486],[-118.06317,33.81968],[-118.06332,33.83154],[-118.06069,33.83456],[-118.05899,33.83521],[-118.05904,33.8462],[-118.05469,33.84622],[-118.05472,33.84982],[-118.05038,33.84987],[-118.0504,33.85354],[-118.04608,33.85361],[-118.04619,33.85869],[-118.04185,33.85872],[-118.04188,33.86233],[-118.03754,33.86237],[-118.0376,33.86601],[-118.02872,33.86605],[-118.02878,33.87332]]],[[[-118.6682,33.48594],[-118.66592,33.46733],[-118.66175,33.45632],[-118.65506,33.44531],[-118.63073,33.4232],[-118.62592,33.41426],[-118.61857,33.40619],[-118.60723,33.39829],[-118.59108,33.39087],[-118.5732,33.38348],[-118.56363,33.38103],[-118.55338,33.38023],[-118.54793,33.3768],[-118.54858,33.37503],[-118.54961,33.37503],[-118.55119,33.36935],[-118.54961,33.35065],[-118.54748,33.34048],[-118.54252,33.33105],[-118.54085,33.32509],[-118.53488,33.31518],[-118.51804,33.29665],[-118.51039,33.28966],[-118.50368,33.28531],[-118.48669,33.27691],[-118.45507,33.26902],[-118.43765,33.26702],[-118.42752,33.26596],[-118.41205,33.26628],[-118.40256,33.26794],[-118.39414,33.26591],[-118.38559,33.26536],[-118.38149,33.2623],[-118.36331,33.25507],[-118.34377,33.25003],[-118.32799,33.24808],[-118.31862,33.24847],[-118.30284,33.25101],[-118.29246,33.25408],[-118.2807,33.25909],[-118.26918,33.26568],[-118.25918,33.2725],[-118.2509,33.28144],[-118.2509,33.28047],[-118.24908,33.28414],[-118.24594,33.29106],[-118.2427,33.30311],[-118.24105,33.31303],[-118.24129,33.32302],[-118.2451,33.33834],[-118.25138,33.3534],[-118.25771,33.36413],[-118.26275,33.37044],[-118.26818,33.37502],[-118.27721,33.38074],[-118.28581,33.38984],[-118.29467,33.39759],[-118.3041,33.40363],[-118.30659,33.40716],[-118.31095,33.42514],[-118.31635,33.43414],[-118.32465,33.44198],[-118.33277,33.44804],[-118.34206,33.45388],[-118.35092,33.45782],[-118.35939,33.46492],[-118.36922,33.469],[-118.38605,33.47345],[-118.40323,33.47927],[-118.42084,33.48178],[-118.42709,33.48716],[-118.43243,33.48894],[-118.43684,33.48944],[-118.44755,33.50002],[-118.46285,33.51043],[-118.47728,33.51543],[-118.48262,33.51606],[-118.49334,33.51573],[-118.50091,33.52163],[-118.50676,33.52491],[-118.51765,33.52869],[-118.52938,33.53118],[-118.5466,33.53084],[-118.55775,33.52833],[-118.56719,33.52948],[-118.5753,33.52926],[-118.57914,33.52841],[-118.58972,33.53198],[-118.60501,33.53221],[-118.61216,33.53185],[-118.62592,33.52898],[-118.64406,33.52128],[-118.65573,33.51082],[-118.66371,33.50002],[-118.66672,33.49349],[-118.6682,33.48594]]],[[[-118.6782,33.03973],[-118.67855,33.02636],[-118.67484,33.01214],[-118.67102,33.00585],[-118.67017,33.00003],[-118.64473,33.00003],[-118.64343,32.99284],[-118.63919,32.97811],[-118.63771,32.97536],[-118.63552,32.9656],[-118.62957,32.95363],[-118.62212,32.94143],[-118.61469,32.93281],[-118.6088,32.92769],[-118.60547,32.9182],[-118.60529,32.90854],[-118.59693,32.89047],[-118.59208,32.88506],[-118.58794,32.87884],[-118.57506,32.86573],[-118.57138,32.8593],[-118.56253,32.84944],[-118.55319,32.8288],[-118.54673,32.82068],[-118.5382,32.81277],[-118.52043,32.80196],[-118.51581,32.79957],[-118.50765,32.79688],[-118.49967,32.79104],[-118.49421,32.7855],[-118.48497,32.77916],[-118.48167,32.77472],[-118.47391,32.76682],[-118.46471,32.76018],[-118.45381,32.75511],[-118.43654,32.75004],[-118.4198,32.75004],[-118.40832,32.75191],[-118.39256,32.7585],[-118.38535,32.76356],[-118.37838,32.77023],[-118.371,32.7682],[-118.35349,32.76581],[-118.34319,32.76706],[-118.32382,32.77351],[-118.3128,32.78082],[-118.30285,32.78885],[-118.29584,32.79826],[-118.28991,32.81053],[-118.28878,32.82083],[-118.28989,32.82938],[-118.2924,32.83639],[-118.29725,32.84509],[-118.31034,32.8595],[-118.31739,32.86376],[-118.32972,32.87504],[-118.3289,32.87504],[-118.33746,32.87975],[-118.36252,32.90012],[-118.39079,32.91784],[-118.39694,32.92255],[-118.40604,32.93179],[-118.42334,32.94648],[-118.44886,32.96175],[-118.4573,32.97092],[-118.47119,32.98912],[-118.48141,33.00003],[-118.47995,33.00003],[-118.4895,33.01063],[-118.49113,33.01792],[-118.49558,33.02634],[-118.50091,33.03059],[-118.50766,33.03788],[-118.50927,33.04157],[-118.51497,33.04989],[-118.52373,33.05997],[-118.5421,33.07379],[-118.55263,33.07863],[-118.57834,33.08624],[-118.58953,33.08711],[-118.60226,33.08605],[-118.61962,33.08672],[-118.63264,33.08454],[-118.6413,33.08188],[-118.65436,33.07495],[-118.66385,33.06685],[-118.67078,33.05797],[-118.67561,33.04935],[-118.6782,33.03973]]]]}},{"type":"Feature","properties":{"county":"Orange","geoid":"06059"},"geometry":{"type":"Polygon","coordinates":[[[-118.09706,33.77438],[-118.09233,33.76453],[-118.09197,33.75847],[-118.11406,33.74614],[-118.14781,33.69408],[-118.1259,33.69715],[-118.10748,33.66878],[-118.09647,33.65365],[-118.07507,33.63961],[-118.04985,33.62001],[-118.03361,33.60935],[-118.01532,33.59949],[-118.00088,33.59317],[-117.97381,33.57623],[-117.93405,33.54925],[-117.87369,33.51977],[-117.83604,33.50003],[-117.82659,33.497],[-117.81636,33.49087],[-117.81484,33.48721],[-117.81128,33.48202],[-117.80442,33.47662],[-117.79326,33.46978],[-117.79235,33.46535],[-117.79048,33.46124],[-117.77606,33.44529],[-117.76514,33.43154],[-117.74141,33.41012],[-117.73534,33.40744],[-117.72572,33.40744],[-117.71357,33.40878],[-117.68519,33.38776],[-117.66618,33.37503],[-117.6538,33.36482],[-117.64786,33.36363],[-117.6362,33.34913],[-117.62588,33.34211],[-117.61108,33.33399],[-117.59608,33.38595],[-117.57851,33.45381],[-117.55984,33.45139],[-117.53817,33.45488],[-117.5095,33.47027],[-117.50973,33.50906],[-117.50376,33.50895],[-117.50318,33.5204],[-117.50991,33.52055],[-117.51021,33.534],[-117.48766,33.56431],[-117.41299,33.65905],[-117.45798,33.69029],[-117.47457,33.70381],[-117.49712,33.70551],[-117.534,33.71036],[-117.53645,33.75767],[-117.56907,33.76457],[-117.58014,33.76799],[-117.58079,33.76948],[-117.60764,33.79773],[-117.66212,33.8575],[-117.67428,33.85796],[-117.67505,33.86872],[-117.67161,33.86937],[-117.6793,33.87762],[-117.73809,33.91374],[-117.78308,33.94626],[-117.85197,33.94693],[-117.87195,33.94573],[-117.91141,33.94607],[-117.91956,33.94764],[-117.91956,33.94608],[-117.9765,33.94605],[-117.97659,33.90281],[-117.9854,33.90277],[-117.98533,33.89551],[-117.99414,33.89551],[-117.99406,33.88822],[-118.00286,33.88816],[-118.00275,33.88089],[-118.01147,33.88085],[-118.01138,33.87343],[-118.02878,33.87332],[-118.02872,33.86605],[-118.0376,33.86601],[-118.03754,33.86237],[-118.04188,33.86233],[-118.04185,33.85872],[-118.04619,33.85869],[-118.04608,33.85361],[-118.0504,33.85354],[-118.05038,33.84987],[-118.05472,33.84982],[-118.05469,33.84622],[-118.05904,33.8462],[-118.05899,33.83521],[-118.06069,33.83456],[-118.06332,33.83154],[-118.06317,33.81968],[-118.07283,33.81486],[-118.08474,33.80291],[-118.08623,33.79688],[-118.09656,33.77947],[-118.09706,33.77438]]]}},{"type":"Feature","properties":{"county":"Riverside","geoid":"06065"},"geometry":{"type":"Polygon","coordinates":[[[-114.7665,33.43374],[-114.62713,33.43355],[-114.62228,33.44756],[-114.6234,33.45449],[-114.62292,33.45656],[-114.61433,33.46732],[-114.61247,33.47077],[-114.60784,33.47483],[-114.6034,33.48063],[-114.60169,33.4814],[-114.59971,33.48432],[-114.59728,33.49065],[-114.59237,33.49868],[-114.58925,33.50181],[-114.58047,33.50647],[-114.57376,33.50754],[-114.56953,33.50922],[-114.56096,33.51674],[-114.56084,33.52433],[-114.5589,33.53182],[-114.54201,33.54248],[-114.5318,33.54786],[-114.5304,33.5501],[-114.5246,33.55223],[-114.52439,33.55368],[-114.52683,33.55747],[-114.53161,33.5617],[-114.53319,33.56582],[-114.53678,33.57096],[-114.5378,33.57556],[-114.53898,33.57679],[-114.5403,33.58062],[-114.54062,33.59141],[-114.52919,33.60665],[-114.52678,33.60883],[-114.52207,33.61128],[-114.52184,33.61254],[-114.52237,33.61417],[-114.52738,33.61783],[-114.52908,33.62171],[-114.53121,33.62391],[-114.53103,33.62821],[-114.52637,33.63026],[-114.5238,33.6347],[-114.52539,33.64067],[-114.52955,33.64386],[-114.53321,33.64844],[-114.53319,33.65166],[-114.53058,33.65446],[-114.52516,33.65594],[-114.51834,33.65593],[-114.51456,33.65801],[-114.51406,33.66018],[-114.51534,33.66203],[-114.51711,33.66288],[-114.52067,33.66268],[-114.52644,33.66388],[-114.53027,33.66682],[-114.53212,33.6697],[-114.53152,33.67511],[-114.53035,33.67924],[-114.52778,33.68268],[-114.52396,33.68588],[-114.51241,33.69128],[-114.50499,33.69302],[-114.49649,33.6969],[-114.4942,33.70792],[-114.4949,33.71443],[-114.49657,33.71915],[-114.50079,33.7222],[-114.50418,33.72805],[-114.51235,33.73421],[-114.50821,33.74159],[-114.50448,33.751],[-114.50486,33.76047],[-114.50709,33.76793],[-114.51673,33.78835],[-114.51894,33.7973],[-114.52805,33.81496],[-114.52271,33.81898],[-114.52073,33.82203],[-114.51997,33.82538],[-114.52341,33.83532],[-114.5296,33.84806],[-114.53061,33.85544],[-114.52988,33.85756],[-114.52707,33.85943],[-114.52429,33.86013],[-114.51681,33.85812],[-114.51467,33.85864],[-114.51135,33.86157],[-114.50564,33.86428],[-114.50389,33.86575],[-114.50302,33.868],[-114.50386,33.87123],[-114.50339,33.87502],[-114.50434,33.87688],[-114.51014,33.88078],[-114.52277,33.89258],[-114.52481,33.89568],[-114.52587,33.90101],[-114.52429,33.90159],[-114.51634,33.89792],[-114.51371,33.89796],[-114.50871,33.90064],[-114.50792,33.90381],[-114.51151,33.91109],[-114.51843,33.91752],[-114.52536,33.92227],[-114.53495,33.9257],[-114.53585,33.9281],[-114.53568,33.93355],[-114.52868,33.94782],[-114.52273,33.95504],[-114.51586,33.95811],[-114.51123,33.95704],[-114.50875,33.9575],[-114.49988,33.96179],[-114.48478,33.97552],[-114.48146,33.98126],[-114.47114,33.98804],[-114.46793,33.99288],[-114.46113,33.99354],[-114.45926,33.99471],[-114.45803,33.99716],[-114.45918,34.00002],[-114.46628,34.00388],[-114.46731,34.00519],[-114.4674,34.00745],[-114.46587,34.01099],[-114.46334,34.01226],[-114.45481,34.01097],[-114.45021,34.01257],[-114.44382,34.01618],[-114.43827,34.02261],[-114.43617,34.02808],[-114.43495,34.03778],[-114.43582,34.04373],[-114.43941,34.05381],[-114.43934,34.05789],[-114.43768,34.07194],[-114.43543,34.07973],[-115.12581,34.07979],[-115.19239,34.07942],[-115.19244,34.07776],[-115.31607,34.07784],[-115.31621,34.03411],[-115.5957,34.03539],[-115.98484,34.03515],[-115.98483,34.03443],[-116.18187,34.03364],[-116.19592,34.03361],[-116.19585,34.03433],[-116.3006,34.0344],[-116.30063,34.03254],[-116.31593,34.03247],[-116.61557,34.03255],[-116.6156,34.03331],[-116.74652,34.03406],[-116.92956,34.03411],[-116.92936,34.00491],[-116.98672,34.00472],[-116.99898,34.00399],[-117.03446,34.00488],[-117.06917,34.00389],[-117.1039,34.00438],[-117.12132,34.00348],[-117.14221,34.00429],[-117.22537,34.00419],[-117.22553,34.01797],[-117.29607,34.01825],[-117.3049,34.0193],[-117.37542,34.0194],[-117.37539,34.02541],[-117.37728,34.02672],[-117.37416,34.03085],[-117.37508,34.03109],[-117.37534,34.03388],[-117.41637,34.03428],[-117.55831,34.03345],[-117.55838,33.98842],[-117.61094,33.97181],[-117.61095,33.92415],[-117.65516,33.92485],[-117.65558,33.90985],[-117.6543,33.90322],[-117.65483,33.88868],[-117.67628,33.88864],[-117.67277,33.88673],[-117.67274,33.88539],[-117.6699,33.88277],[-117.66896,33.88083],[-117.6732,33.87543],[-117.67077,33.87427],[-117.67231,33.8712],[-117.67313,33.871],[-117.67161,33.86937],[-117.67505,33.86872],[-117.67428,33.85796],[-117.66212,33.8575],[-117.60764,33.79773],[-117.58079,33.76948],[-117.58014,33.76799],[-117.56907,33.76457],[-117.53645,33.75767],[-117.534,33.71036],[-117.49712,33.70551],[-117.47457,33.70381],[-117.45798,33.69029],[-117.41299,33.65905],[-117.48766,33.56431],[-117.51021,33.534],[-117.50991,33.52055],[-117.50318,33.5204],[-117.50376,33.50895],[-117.50973,33.50906],[-117.50972,33.50518],[-117.36427,33.5049],[-117.3708,33.49066],[-117.24147,33.44882],[-117.24135,33.43193],[-117.13878,33.43259],[-117.1044,33.43026],[-117.03085,33.4299],[-117.03088,33.42687],[-116.98202,33.42742],[-116.86755,33.42683],[-116.71976,33.42757],[-116.29853,33.42745],[-116.1977,33.42891],[-116.12986,33.42611],[-116.0849,33.42593],[-115.68292,33.4274],[-115.46837,33.42699],[-115.46751,33.42699],[-115.46751,33.4284],[-115.25167,33.42821],[-115.12581,33.42905],[-115.0632,33.4281],[-115.0008,33.42942],[-114.83083,33.43009],[-114.83087,33.43371],[-114.7665,33.43374]]]}},{"type":"Feature","properties":{"county":"San Bernardino","geoid":"06071"},"geometry":{"type":"Polygon","coordinates":[[[-114.82952,34.0796],[-114.43543,34.07973],[-114.43418,34.08738],[-114.43338,34.08841],[-114.42803,34.09279],[-114.42617,34.09704],[-114.4229,34.09966],[-114.4205,34.10347],[-114.41591,34.10764],[-114.41168,34.11003],[-114.40592,34.11147],[-114.40134,34.11164],[-114.39057,34.11008],[-114.37922,34.11599],[-114.36652,34.11858],[-114.3604,34.12358],[-114.35637,34.13043],[-114.35303,34.13312],[-114.34805,34.13446],[-114.33611,34.13403],[-114.32458,34.13676],[-114.32078,34.13863],[-114.31221,34.14478],[-114.3078,34.15057],[-114.29281,34.16672],[-114.28729,34.17053],[-114.27527,34.17215],[-114.26846,34.17018],[-114.25703,34.17284],[-114.25344,34.17413],[-114.24442,34.1794],[-114.24071,34.18323],[-114.22972,34.18693],[-114.22703,34.18887],[-114.22494,34.1939],[-114.22586,34.20177],[-114.22519,34.20364],[-114.21176,34.21154],[-114.20825,34.2155],[-114.19088,34.23086],[-114.17805,34.23997],[-114.1764,34.24151],[-114.17591,34.24559],[-114.1746,34.2473],[-114.16612,34.25001],[-114.16387,34.25335],[-114.16533,34.25849],[-114.16465,34.2597],[-114.15685,34.25841],[-114.14478,34.25962],[-114.13545,34.25789],[-114.13326,34.25846],[-114.13149,34.26039],[-114.13121,34.26273],[-114.13477,34.26896],[-114.13667,34.27438],[-114.13704,34.27702],[-114.13605,34.28083],[-114.13837,34.28856],[-114.13953,34.29584],[-114.13828,34.30323],[-114.14093,34.30592],[-114.15721,34.31786],[-114.16881,34.33951],[-114.17691,34.34931],[-114.18556,34.35439],[-114.19109,34.35613],[-114.19948,34.36137],[-114.21377,34.36246],[-114.22611,34.36592],[-114.22969,34.36891],[-114.23427,34.37666],[-114.24526,34.38566],[-114.25274,34.3901],[-114.26432,34.40133],[-114.26752,34.40249],[-114.28011,34.40315],[-114.28866,34.40662],[-114.29175,34.4111],[-114.29223,34.41761],[-114.29484,34.42139],[-114.30102,34.42681],[-114.31225,34.43273],[-114.31905,34.43583],[-114.32613,34.43725],[-114.33067,34.4453],[-114.33537,34.45004],[-114.33963,34.45143],[-114.34262,34.45144],[-114.35602,34.44974],[-114.3634,34.44777],[-114.37372,34.44694],[-114.37885,34.45038],[-114.3867,34.45791],[-114.38719,34.46202],[-114.3817,34.47604],[-114.38304,34.4889],[-114.38236,34.49576],[-114.37812,34.50729],[-114.37822,34.51652],[-114.38084,34.52972],[-114.3896,34.54298],[-114.40523,34.56964],[-114.42238,34.58071],[-114.43567,34.59384],[-114.43681,34.59607],[-114.43636,34.5968],[-114.4275,34.59923],[-114.42534,34.60084],[-114.42433,34.60234],[-114.4242,34.61045],[-114.42865,34.61464],[-114.43874,34.62146],[-114.43949,34.62586],[-114.4414,34.63017],[-114.44029,34.63824],[-114.44146,34.64253],[-114.44428,34.64654],[-114.44955,34.65142],[-114.45798,34.65711],[-114.4577,34.65933],[-114.45179,34.66389],[-114.45051,34.66684],[-114.45431,34.67123],[-114.45554,34.67734],[-114.46218,34.6858],[-114.46525,34.6912],[-114.46809,34.70179],[-114.46862,34.70757],[-114.47048,34.71137],[-114.47162,34.71297],[-114.47368,34.71396],[-114.48278,34.71451],[-114.48751,34.71663],[-114.49097,34.72485],[-114.49202,34.7257],[-114.50079,34.73042],[-114.51029,34.73358],[-114.51662,34.73674],[-114.52961,34.75082],[-114.54031,34.75711],[-114.55268,34.76687],[-114.55865,34.77385],[-114.56398,34.7826],[-114.56518,34.78598],[-114.57101,34.79429],[-114.57447,34.80421],[-114.57645,34.8153],[-114.58113,34.82611],[-114.58684,34.83567],[-114.59234,34.84115],[-114.60065,34.84736],[-114.61988,34.85687],[-114.62394,34.85974],[-114.63062,34.86636],[-114.63438,34.87289],[-114.63677,34.88571],[-114.63672,34.88911],[-114.63543,34.89519],[-114.63088,34.90726],[-114.63055,34.91185],[-114.63324,34.92123],[-114.63325,34.92461],[-114.62975,34.93868],[-114.62977,34.94304],[-114.63168,34.95131],[-114.63495,34.95892],[-114.63524,34.96515],[-114.63461,34.96906],[-114.62991,34.98079],[-114.62913,34.98613],[-114.62944,34.99182],[-114.63349,35.00186],[-114.79734,35.13493],[-114.85393,35.17925],[-114.89539,35.21333],[-115.0677,35.34974],[-115.084,35.36339],[-115.10096,35.37568],[-115.16106,35.42396],[-115.1649,35.42787],[-115.25972,35.50354],[-115.64836,35.80921],[-115.73575,35.8091],[-115.73589,35.79362],[-116.27726,35.79339],[-116.6511,35.79543],[-117.37589,35.79515],[-117.54229,35.79582],[-117.63428,35.79726],[-117.63431,35.70983],[-117.65214,35.70986],[-117.65218,35.68077],[-117.61652,35.68069],[-117.61652,35.65161],[-117.63435,35.65157],[-117.63461,35.56426],[-117.63008,35.56425],[-117.63032,35.48091],[-117.62969,35.46616],[-117.63022,35.45141],[-117.63366,35.45141],[-117.63373,35.43454],[-117.6313,35.41957],[-117.63247,35.40558],[-117.63113,35.36172],[-117.63088,35.0976],[-117.63329,35.09756],[-117.63223,34.99342],[-117.63215,34.82227],[-117.66746,34.82253],[-117.66712,34.55791],[-117.6604,34.55789],[-117.65976,34.45277],[-117.64637,34.28917],[-117.6785,34.16199],[-117.68171,34.15583],[-117.6868,34.13812],[-117.71648,34.06758],[-117.72736,34.03739],[-117.73012,34.02137],[-117.73585,34.01855],[-117.76766,34.02351],[-117.76705,34.01119],[-117.76753,34.00469],[-117.78503,34.00485],[-117.80254,33.97555],[-117.80244,33.96831],[-117.79367,33.96814],[-117.79355,33.95382],[-117.73809,33.91374],[-117.6793,33.87762],[-117.67305,33.87107],[-117.67231,33.8712],[-117.67077,33.87427],[-117.6732,33.87543],[-117.66896,33.88083],[-117.6699,33.88277],[-117.67274,33.88539],[-117.67277,33.88673],[-117.67628,33.88864],[-117.65483,33.88868],[-117.6543,33.90322],[-117.65558,33.90985],[-117.65516,33.92485],[-117.61095,33.92415],[-117.61094,33.97181],[-117.55838,33.98842],[-117.55831,34.03345],[-117.41637,34.03428],[-117.37534,34.03388],[-117.37508,34.03109],[-117.37416,34.03085],[-117.37728,34.02672],[-117.37539,34.02541],[-117.37542,34.0194],[-117.3049,34.0193],[-117.29607,34.01825],[-117.22553,34.01797],[-117.22537,34.00419],[-117.14221,34.00429],[-117.12132,34.00348],[-117.1039,34.00438],[-117.06917,34.00389],[-117.03446,34.00488],[-116.99898,34.00399],[-116.98672,34.00472],[-116.92936,34.00491],[-116.92956,34.03411],[-116.74652,34.03406],[-116.6156,34.03331],[-116.61557,34.03255],[-116.31593,34.03247],[-116.30063,34.03254],[-116.3006,34.0344],[-116.19585,34.03433],[-116.19592,34.03361],[-116.18187,34.03364],[-115.98483,34.03443],[-115.98484,34.03515],[-115.5957,34.03539],[-115.31621,34.03411],[-115.31607,34.07784],[-115.19244,34.07776],[-115.19239,34.07942],[-115.12581,34.07979],[-114.82952,34.0796]]]}},{"type":"Feature","properties":{"county":"San Diego","geoid":"06073"},"geometry":{"type":"Polygon","coordinates":[[[-116.7573,32.56551],[-116.10618,32.61844],[-116.10558,32.72635],[-116.10299,32.72635],[-116.10358,32.81442],[-116.10284,32.86877],[-116.1037,32.88897],[-116.10334,33.07483],[-116.0812,33.07486],[-116.08117,33.19084],[-116.08224,33.25108],[-116.08521,33.33922],[-116.08489,33.42632],[-116.12986,33.42611],[-116.1977,33.42891],[-116.29853,33.42745],[-116.71976,33.42757],[-116.86755,33.42683],[-116.98202,33.42742],[-117.03088,33.42687],[-117.03085,33.4299],[-117.1044,33.43026],[-117.13878,33.43259],[-117.24135,33.43193],[-117.24147,33.44882],[-117.3708,33.49066],[-117.36427,33.5049],[-117.50982,33.50518],[-117.5095,33.47027],[-117.53817,33.45488],[-117.55984,33.45139],[-117.57851,33.45381],[-117.59608,33.38595],[-117.61108,33.33399],[-117.57153,33.3123],[-117.5496,33.29442],[-117.521,33.26887],[-117.50774,33.25003],[-117.50088,33.24215],[-117.46787,33.21249],[-117.43556,33.17751],[-117.37587,33.07522],[-117.32328,32.90306],[-117.33264,32.88216],[-117.33966,32.85917],[-117.342,32.84035],[-117.3303,32.80482],[-117.32562,32.73165],[-117.32094,32.68985],[-117.30924,32.6564],[-117.29754,32.64177],[-117.27692,32.62347],[-117.26732,32.61891],[-117.25199,32.61486],[-117.24679,32.61485],[-117.23351,32.61668],[-117.2233,32.62124],[-117.2182,32.61029],[-117.21411,32.59478],[-117.21003,32.57288],[-117.21003,32.55463],[-117.20505,32.52951],[-117.12466,32.53427],[-116.7573,32.56551]]]}},{"type":"Feature","properties":{"county":"Santa Barbara","geoid":"06083"},"geometry":{"type":"MultiPolygon","coordinates":[[[[-120.73433,34.90475],[-120.73382,34.89604],[-120.73068,34.88643],[-120.72412,34.8737],[-120.72032,34.86924],[-120.71297,34.8629],[-120.70495,34.85815],[-120.6956,34.85458],[-120.6841,34.84453],[-120.67328,34.83862],[-120.68442,34.80366],[-120.69289,34.78266],[-120.6998,34.77086],[-120.70223,34.76022],[-120.70209,34.74833],[-120.69828,34.73783],[-120.69323,34.73004],[-120.68843,34.7242],[-120.68466,34.72108],[-120.68216,34.71609],[-120.67731,34.70974],[-120.66584,34.69943],[-120.66469,34.69634],[-120.68248,34.65298],[-120.68648,34.64502],[-120.69394,34.63834],[-120.70128,34.63001],[-120.70718,34.61621],[-120.70856,34.60609],[-120.70709,34.5975],[-120.71213,34.5842],[-120.71333,34.57496],[-120.71276,34.5683],[-120.70795,34.5549],[-120.70397,34.5485],[-120.69883,34.54312],[-120.69499,34.54063],[-120.69066,34.53356],[-120.68453,34.52713],[-120.67824,34.52274],[-120.6724,34.51999],[-120.66345,34.51307],[-120.65606,34.5086],[-120.64236,34.50377],[-120.63258,34.50269],[-120.62105,34.5031],[-120.604,34.50207],[-120.59433,34.50407],[-120.58151,34.49663],[-120.57145,34.49254],[-120.56888,34.49219],[-120.56662,34.49028],[-120.55944,34.48847],[-120.5583,34.48262],[-120.5531,34.47101],[-120.54459,34.46022],[-120.53566,34.4527],[-120.53557,34.43952],[-120.53293,34.43318],[-120.53019,34.42888],[-120.52365,34.4195],[-120.501,34.40314],[-120.48809,34.39828],[-120.47522,34.39666],[-120.46869,34.39394],[-120.451,34.39118],[-120.43625,34.39318],[-120.42603,34.39674],[-120.40853,34.39865],[-120.39798,34.40102],[-120.39059,34.4033],[-120.38692,34.40565],[-120.3773,34.40638],[-120.36733,34.40849],[-120.34887,34.40732],[-120.34685,34.40843],[-120.34,34.40942],[-120.32451,34.40975],[-120.31228,34.41279],[-120.29705,34.41498],[-120.28713,34.41761],[-120.28022,34.4163],[-120.26474,34.41768],[-120.24827,34.41806],[-120.2406,34.41746],[-120.22388,34.41916],[-120.21587,34.42129],[-120.20283,34.42221],[-120.19175,34.41999],[-120.1764,34.42095],[-120.16364,34.42036],[-120.14728,34.42292],[-120.13945,34.42178],[-120.13512,34.42206],[-120.12724,34.41872],[-120.10831,34.41289],[-120.09067,34.40929],[-120.08309,34.40937],[-120.07644,34.41112],[-120.0703,34.40977],[-120.05679,34.40994],[-120.04481,34.41245],[-120.03614,34.40995],[-120.0273,34.40897],[-120.02436,34.40934],[-120.00942,34.40154],[-120.00097,34.39949],[-119.92339,34.37345],[-119.91653,34.37261],[-119.91289,34.36939],[-119.8985,34.36036],[-119.89152,34.35746],[-119.88387,34.35614],[-119.87597,34.35564],[-119.8659,34.35719],[-119.85527,34.35433],[-119.84564,34.35377],[-119.83792,34.35432],[-119.82315,34.35705],[-119.8159,34.35977],[-119.80581,34.36534],[-119.80159,34.36473],[-119.79707,34.36533],[-119.78552,34.3599],[-119.76357,34.35291],[-119.75097,34.34709],[-119.73202,34.3397],[-119.71364,34.33603],[-119.70759,34.33732],[-119.68931,34.3441],[-119.66611,34.35446],[-119.65136,34.36671],[-119.64295,34.36584],[-119.62596,34.36622],[-119.61746,34.36873],[-119.61085,34.36722],[-119.60206,34.36365],[-119.59029,34.36121],[-119.58479,34.36166],[-119.57454,34.35382],[-119.55583,34.34502],[-119.54785,34.34436],[-119.53265,34.33877],[-119.52792,34.33877],[-119.52608,34.33705],[-119.52291,34.33592],[-119.51947,34.33607],[-119.5108,34.33085],[-119.50095,34.32692],[-119.47665,34.3732],[-119.47598,34.3751],[-119.47818,34.37653],[-119.47771,34.37965],[-119.47501,34.37904],[-119.47301,34.37949],[-119.4735,34.38119],[-119.47269,34.38366],[-119.46841,34.38661],[-119.46873,34.3884],[-119.46479,34.38901],[-119.46347,34.39049],[-119.45972,34.39178],[-119.45848,34.39337],[-119.4518,34.39699],[-119.45095,34.39952],[-119.44899,34.40179],[-119.44699,34.4019],[-119.44691,34.40382],[-119.44564,34.40426],[-119.44541,34.40888],[-119.44936,34.41197],[-119.45063,34.41518],[-119.45442,34.41833],[-119.45367,34.41946],[-119.45458,34.42163],[-119.45301,34.42303],[-119.45361,34.42508],[-119.45343,34.42711],[-119.45264,34.42757],[-119.45314,34.42895],[-119.45153,34.42983],[-119.44472,34.42951],[-119.44398,34.4319],[-119.44448,34.43359],[-119.44313,34.43426],[-119.44367,34.43667],[-119.44174,34.43875],[-119.44041,34.44184],[-119.44149,34.44792],[-119.44329,34.44953],[-119.44158,34.45187],[-119.44227,34.45523],[-119.44229,34.60433],[-119.44384,34.76274],[-119.44369,34.90117],[-119.49035,34.90117],[-119.49046,34.89748],[-119.53576,34.89758],[-119.54706,34.90538],[-119.56296,34.91478],[-119.57986,34.92277],[-119.58606,34.92728],[-119.59246,34.93508],[-119.6131,34.9495],[-119.61686,34.95057],[-119.62476,34.94917],[-119.63486,34.95387],[-119.64426,34.95358],[-119.64671,34.95686],[-119.6525,34.95993],[-119.65528,34.9638],[-119.66123,34.96691],[-119.66427,34.96988],[-119.67316,34.97347],[-119.67862,34.97177],[-119.68456,34.97207],[-119.69322,34.97371],[-119.70056,34.97667],[-119.70846,34.97548],[-119.71856,34.97148],[-119.72467,34.97358],[-119.727,34.97613],[-119.72933,34.97465],[-119.74007,34.97308],[-119.74557,34.97368],[-119.74997,34.97578],[-119.75504,34.98001],[-119.76386,34.98208],[-119.77066,34.98631],[-119.7804,34.99073],[-119.78191,34.99072],[-119.78566,34.98827],[-119.78929,34.98867],[-119.799,34.99325],[-119.80077,34.99625],[-119.80102,34.99886],[-119.80388,34.99761],[-119.80995,35.0021],[-119.81114,35.00069],[-119.81317,35.00067],[-119.82436,35.00495],[-119.83082,35.00578],[-119.84118,35.01501],[-119.84417,35.01548],[-119.84798,35.02542],[-119.85147,35.02755],[-119.85151,35.0307],[-119.85452,35.03215],[-119.86333,35.03143],[-119.866,35.03508],[-119.87509,35.03569],[-119.87827,35.03971],[-119.88296,35.03927],[-119.88523,35.04028],[-119.88965,35.04063],[-119.89175,35.03904],[-119.8981,35.03813],[-119.89955,35.036],[-119.90197,35.03579],[-119.9019,35.039],[-119.90707,35.03791],[-119.90695,35.03918],[-119.91025,35.03956],[-119.90829,35.04355],[-119.90866,35.0445],[-119.91161,35.0438],[-119.9121,35.04469],[-119.90943,35.04595],[-119.91731,35.04898],[-119.91836,35.05314],[-119.92179,35.05254],[-119.92462,35.0556],[-119.92621,35.05616],[-119.92603,35.05832],[-119.92842,35.05979],[-119.92965,35.05801],[-119.93035,35.05865],[-119.93161,35.05634],[-119.93901,35.05499],[-119.93786,35.05708],[-119.93992,35.05801],[-119.94272,35.05444],[-119.94507,35.05456],[-119.94557,35.05605],[-119.94922,35.05593],[-119.94877,35.05718],[-119.95221,35.05734],[-119.95427,35.05459],[-119.95589,35.0549],[-119.95578,35.05718],[-119.95778,35.05726],[-119.95893,35.05573],[-119.96069,35.05571],[-119.96191,35.05833],[-119.96502,35.05882],[-119.96695,35.05632],[-119.96861,35.05646],[-119.97093,35.05876],[-119.97572,35.05827],[-119.97787,35.05948],[-119.98012,35.05757],[-119.98128,35.05832],[-119.97964,35.05911],[-119.97966,35.06186],[-119.98245,35.06119],[-119.98612,35.0633],[-119.98695,35.06476],[-119.98856,35.06493],[-119.9895,35.06349],[-119.99256,35.06293],[-120.00202,35.0732],[-120.0056,35.0718],[-120.00722,35.07234],[-120.00981,35.07529],[-120.01358,35.07558],[-120.01405,35.08145],[-120.01826,35.08236],[-120.02332,35.08031],[-120.02486,35.08096],[-120.02408,35.08404],[-120.02582,35.08484],[-120.02931,35.08357],[-120.03282,35.08782],[-120.03956,35.08915],[-120.04187,35.08586],[-120.04404,35.08599],[-120.04852,35.0899],[-120.05994,35.09297],[-120.06122,35.09535],[-120.06442,35.0955],[-120.06731,35.09676],[-120.07198,35.10183],[-120.07241,35.10471],[-120.07428,35.10549],[-120.07652,35.10467],[-120.08074,35.1049],[-120.08494,35.10761],[-120.08578,35.10899],[-120.08542,35.10971],[-120.0834,35.10957],[-120.08173,35.11161],[-120.07931,35.11267],[-120.08208,35.11468],[-120.08829,35.11298],[-120.09328,35.1142],[-120.09607,35.11219],[-120.09639,35.1101],[-120.09791,35.1095],[-120.09922,35.10985],[-120.09977,35.11292],[-120.10217,35.11336],[-120.10274,35.11222],[-120.10228,35.10845],[-120.10382,35.10797],[-120.10833,35.10888],[-120.1074,35.10472],[-120.1096,35.10349],[-120.11268,35.10351],[-120.11575,35.10667],[-120.11686,35.10668],[-120.11752,35.10587],[-120.11674,35.10443],[-120.11968,35.10292],[-120.11844,35.10102],[-120.11933,35.09845],[-120.12221,35.09776],[-120.12274,35.09954],[-120.12438,35.0997],[-120.12675,35.09548],[-120.12671,35.0921],[-120.12761,35.09091],[-120.1305,35.0915],[-120.12944,35.09439],[-120.13004,35.09612],[-120.13221,35.0954],[-120.13597,35.09786],[-120.13833,35.09418],[-120.14186,35.09596],[-120.14317,35.09574],[-120.14341,35.09358],[-120.14151,35.09107],[-120.14257,35.0902],[-120.14427,35.09047],[-120.14534,35.08819],[-120.14419,35.08679],[-120.14087,35.0868],[-120.14112,35.08433],[-120.14292,35.08222],[-120.14897,35.08445],[-120.14965,35.08338],[-120.14939,35.08147],[-120.15527,35.08199],[-120.15557,35.0781],[-120.15721,35.07809],[-120.16197,35.07595],[-120.16762,35.0753],[-120.16904,35.07444],[-120.16991,35.07202],[-120.17171,35.07025],[-120.17458,35.07024],[-120.17464,35.0689],[-120.17278,35.06851],[-120.17288,35.06675],[-120.17385,35.06569],[-120.17293,35.06427],[-120.17538,35.06269],[-120.18015,35.06161],[-120.17953,35.06016],[-120.18057,35.05471],[-120.18356,35.05213],[-120.18491,35.04909],[-120.18186,35.04349],[-120.18324,35.04217],[-120.18241,35.04062],[-120.18033,35.03928],[-120.1805,35.03804],[-120.1864,35.03655],[-120.18825,35.03392],[-120.18838,35.03038],[-120.19958,35.02965],[-120.20332,35.02866],[-120.20477,35.02548],[-120.21029,35.02377],[-120.20945,35.02122],[-120.20991,35.02058],[-120.21122,35.02045],[-120.21577,35.02262],[-120.22093,35.02111],[-120.22457,35.02273],[-120.2318,35.02051],[-120.23297,35.02355],[-120.24068,35.02243],[-120.24403,35.02359],[-120.24768,35.02653],[-120.24885,35.02964],[-120.24999,35.03006],[-120.25272,35.02814],[-120.25479,35.02102],[-120.25745,35.01759],[-120.25883,35.01772],[-120.26005,35.02067],[-120.26132,35.02137],[-120.26136,35.02355],[-120.25994,35.02592],[-120.2614,35.02661],[-120.26659,35.02126],[-120.27367,35.0208],[-120.27715,35.01758],[-120.27862,35.01156],[-120.29023,35.01544],[-120.30993,35.00922],[-120.32382,35.01731],[-120.33455,35.00632],[-120.33535,35.00351],[-120.33392,34.99563],[-120.32626,34.98571],[-120.31896,34.98605],[-120.316,34.984],[-120.31442,34.98],[-120.3161,34.9766],[-120.31562,34.97493],[-120.30834,34.97034],[-120.30195,34.96338],[-120.30193,34.96203],[-120.304,34.95887],[-120.30384,34.95611],[-120.30224,34.95366],[-120.29591,34.94974],[-120.29455,34.94659],[-120.29469,34.94267],[-120.29346,34.93948],[-120.29218,34.93031],[-120.29351,34.92481],[-120.29993,34.91633],[-120.30027,34.9147],[-120.29885,34.90879],[-120.29945,34.90707],[-120.30183,34.90557],[-120.30362,34.90586],[-120.30545,34.90464],[-120.3115,34.90376],[-120.31765,34.90655],[-120.32063,34.91097],[-120.321,34.91379],[-120.32446,34.91933],[-120.32442,34.92222],[-120.33585,34.93113],[-120.3402,34.93378],[-120.34587,34.93518],[-120.35303,34.93929],[-120.36124,34.94647],[-120.39105,34.9633],[-120.42585,34.98108],[-120.43596,34.98706],[-120.44025,34.98832],[-120.49622,34.99315],[-120.53857,34.98375],[-120.54392,34.97939],[-120.54709,34.97881],[-120.55492,34.97388],[-120.5655,34.97732],[-120.57519,34.97829],[-120.58231,34.97226],[-120.58552,34.96722],[-120.5955,34.96649],[-120.6022,34.97275],[-120.61314,34.97127],[-120.6163,34.96595],[-120.62887,34.96288],[-120.63414,34.95956],[-120.64912,34.9746],[-120.70279,34.99998],[-120.71206,34.97293],[-120.71444,34.96354],[-120.72026,34.95629],[-120.72675,34.94381],[-120.72811,34.93826],[-120.72851,34.93165],[-120.72723,34.92332],[-120.72883,34.92138],[-120.73195,34.9143],[-120.73433,34.90475]]],[[[-119.11717,33.5056],[-119.11895,33.50002],[-119.10721,33.50002],[-119.1092,33.48007],[-119.10965,33.46229],[-119.10888,33.45115],[-119.10615,33.44501],[-119.10076,33.43524],[-119.09413,33.42687],[-119.08651,33.42139],[-119.07189,33.4138],[-119.05307,33.41102],[-119.02704,33.41287],[-119.00952,33.41677],[-119.00093,33.4213],[-119.00093,33.41849],[-118.98873,33.42344],[-118.98051,33.42859],[-118.97848,33.43111],[-118.97268,33.44317],[-118.96983,33.45289],[-118.96676,33.45791],[-118.96375,33.46683],[-118.96273,33.4733],[-118.96276,33.48521],[-118.96602,33.50002],[-118.97101,33.51066],[-118.97289,33.51384],[-118.98215,33.52426],[-118.99005,33.53029],[-119.00093,33.5359],[-119.01735,33.53919],[-119.03074,33.54012],[-119.05655,33.53603],[-119.06616,33.53671],[-119.0765,33.53515],[-119.09049,33.5303],[-119.0987,33.52644],[-119.10421,33.52289],[-119.10872,33.51926],[-119.11166,33.51547],[-119.11717,33.5056]]],[[[-120.58226,34.10752],[-120.58155,34.09149],[-120.57381,34.07597],[-120.567,34.06864],[-120.55939,34.06238],[-120.55005,34.05729],[-120.53106,34.05169],[-120.52339,34.05113],[-120.52645,34.04146],[-120.52585,34.03299],[-120.52314,34.02282],[-120.51878,34.01408],[-120.5062,34.0],[-120.50099,33.9963],[-120.49773,33.9912],[-120.48815,33.98428],[-120.48077,33.98026],[-120.46678,33.97612],[-120.45579,33.97627],[-120.44619,33.97737],[-120.43998,33.97554],[-120.43218,33.9747],[-120.42259,33.97494],[-120.41177,33.97705],[-120.39564,33.96743],[-120.36707,33.96104],[-120.35863,33.96139],[-120.34687,33.96349],[-120.33225,33.96843],[-120.32704,33.96673],[-120.31739,33.96637],[-120.3082,33.96641],[-120.29897,33.96846],[-120.29187,33.96224],[-120.28003,33.95394],[-120.27938,33.94866],[-120.2731,33.92958],[-120.26449,33.91892],[-120.25639,33.91167],[-120.25097,33.90844],[-120.23872,33.90411],[-120.23637,33.90014],[-120.22963,33.89233],[-120.22113,33.88419],[-120.21495,33.88078],[-120.20763,33.87891],[-120.19951,33.875],[-120.19339,33.86853],[-120.18822,33.86636],[-120.183,33.86629],[-120.17032,33.85742],[-120.15708,33.85343],[-120.14955,33.84796],[-120.13993,33.8448],[-120.11727,33.84158],[-120.10409,33.8424],[-120.09045,33.84632],[-120.08011,33.85051],[-120.07065,33.85649],[-120.05844,33.85964],[-120.04791,33.86359],[-120.03454,33.86448],[-120.02781,33.86651],[-120.01934,33.87055],[-120.01541,33.87515],[-120.00862,33.87884],[-120.00096,33.88525],[-119.98084,33.89232],[-119.97239,33.89138],[-119.96268,33.89244],[-119.95029,33.89438],[-119.93919,33.89864],[-119.9288,33.90547],[-119.91893,33.91435],[-119.91102,33.9239],[-119.90673,33.93238],[-119.90476,33.93967],[-119.89624,33.93574],[-119.88405,33.92598],[-119.87596,33.92138],[-119.86195,33.91084],[-119.85522,33.90749],[-119.84744,33.90423],[-119.83442,33.90079],[-119.82321,33.89939],[-119.81022,33.90132],[-119.797,33.90634],[-119.78937,33.91013],[-119.77832,33.91061],[-119.77283,33.91241],[-119.75856,33.9108],[-119.7455,33.91141],[-119.74134,33.91262],[-119.73142,33.91027],[-119.71883,33.90963],[-119.70749,33.91039],[-119.6876,33.91564],[-119.68059,33.91949],[-119.66914,33.92313],[-119.66116,33.92834],[-119.65356,33.93009],[-119.63673,33.93828],[-119.62596,33.93604],[-119.61853,33.93588],[-119.61037,33.9372],[-119.60208,33.93677],[-119.59069,33.93958],[-119.58159,33.93967],[-119.57245,33.94114],[-119.56329,33.94495],[-119.55047,33.94495],[-119.53895,33.94766],[-119.53283,33.94987],[-119.52331,33.95493],[-119.51224,33.9622],[-119.50095,33.97148],[-119.49229,33.98321],[-119.48652,34.0],[-119.46806,34.06314],[-119.47731,34.07183],[-119.48875,34.0792],[-119.49749,34.08275],[-119.51211,34.09346],[-119.53842,34.10541],[-119.54825,34.10778],[-119.56552,34.10881],[-119.57412,34.10811],[-119.58197,34.10573],[-119.59056,34.10564],[-119.59989,34.10401],[-119.61427,34.09943],[-119.62597,34.0927],[-119.62811,34.09007],[-119.63523,34.08673],[-119.64517,34.08005],[-119.65493,34.07122],[-119.69301,34.09485],[-119.70111,34.09826],[-119.70946,34.10066],[-119.72597,34.10209],[-119.74522,34.11092],[-119.75098,34.11258],[-119.75098,34.11172],[-119.76084,34.11262],[-119.76903,34.11194],[-119.7926,34.10637],[-119.81157,34.11341],[-119.82922,34.1187],[-119.83796,34.12019],[-119.85209,34.12096],[-119.87598,34.12623],[-119.87598,34.12557],[-119.88832,34.12637],[-119.89418,34.12577],[-119.90558,34.12935],[-119.91336,34.13015],[-119.9288,34.1299],[-119.93615,34.12866],[-119.94784,34.125],[-119.96547,34.11256],[-119.97236,34.10335],[-119.97417,34.09942],[-119.97439,34.09674],[-119.98195,34.08938],[-119.99164,34.06487],[-120.00096,34.07682],[-120.00096,34.07867],[-120.01021,34.08404],[-120.0195,34.08772],[-120.02649,34.08901],[-120.04515,34.09061],[-120.06333,34.08971],[-120.08028,34.0864],[-120.08585,34.0842],[-120.10292,34.07449],[-120.12013,34.07894],[-120.13501,34.07881],[-120.14523,34.07774],[-120.15011,34.07607],[-120.15901,34.0757],[-120.17113,34.07332],[-120.18546,34.06622],[-120.19411,34.05872],[-120.19758,34.05815],[-120.21038,34.06085],[-120.22488,34.06131],[-120.25097,34.05891],[-120.25285,34.05803],[-120.26241,34.06508],[-120.27158,34.07414],[-120.27245,34.07811],[-120.27428,34.0818],[-120.28465,34.09475],[-120.29779,34.10412],[-120.31171,34.10951],[-120.32109,34.11045],[-120.32434,34.1138],[-120.33856,34.12169],[-120.34271,34.1315],[-120.35049,34.14145],[-120.35516,34.14502],[-120.36198,34.14878],[-120.36875,34.15104],[-120.38862,34.15505],[-120.39194,34.15671],[-120.40117,34.15873],[-120.41879,34.16057],[-120.43272,34.15748],[-120.44907,34.15059],[-120.45701,34.14576],[-120.47165,34.1341],[-120.48143,34.14217],[-120.49738,34.14989],[-120.51604,34.1528],[-120.53812,34.15034],[-120.5487,34.14642],[-120.561,34.14066],[-120.56785,34.13562],[-120.57509,34.12647],[-120.57905,34.11859],[-120.58226,34.10752]]]]}},{"type":"Feature","properties":{"county":"Ventura","geoid":"06111"},"geometry":{"type":"MultiPolygon","coordinates":[[[[-119.45458,34.42163],[-119.45367,34.41946],[-119.45442,34.41833],[-119.45063,34.41518],[-119.44936,34.41197],[-119.44541,34.40888],[-119.44564,34.40426],[-119.44691,34.40382],[-119.44699,34.4019],[-119.44899,34.40179],[-119.45095,34.39952],[-119.4518,34.39699],[-119.45848,34.39337],[-119.45972,34.39178],[-119.46347,34.39049],[-119.46479,34.38901],[-119.46873,34.3884],[-119.46841,34.38661],[-119.47269,34.38366],[-119.4735,34.38119],[-119.47301,34.37949],[-119.47501,34.37904],[-119.47771,34.37965],[-119.47818,34.37653],[-119.47598,34.3751],[-119.47665,34.3732],[-119.50095,34.32692],[-119.48422,34.30678],[-119.46699,34.29366],[-119.44898,34.28469],[-119.42862,34.27778],[-119.41139,34.27364],[-119.40199,34.27226],[-119.38633,34.25707],[-119.37594,34.24988],[-119.35073,34.24014],[-119.33593,34.23752],[-119.33446,34.23653],[-119.32865,34.22691],[-119.31683,34.20252],[-119.29757,34.16032],[-119.28574,34.1408],[-119.26773,34.12125],[-119.25094,34.1062],[-119.21799,34.06249],[-119.15896,34.04025],[-119.1168,34.02982],[-119.05777,34.01939],[-119.02741,34.01492],[-119.00042,34.00747],[-118.98321,33.99946],[-118.96403,33.99675],[-118.95172,33.99286],[-118.94097,34.07483],[-118.78889,34.16821],[-118.66815,34.16819],[-118.66771,34.24034],[-118.63249,34.24039],[-118.63255,34.26343],[-118.63679,34.2918],[-118.81587,34.65541],[-118.88041,34.78866],[-118.97802,34.78981],[-118.97793,34.81171],[-119.24253,34.81432],[-119.24258,34.8576],[-119.27724,34.85728],[-119.27643,34.87248],[-119.35553,34.87254],[-119.35553,34.87368],[-119.38185,34.87399],[-119.382,34.87968],[-119.38298,34.87965],[-119.3837,34.90082],[-119.44369,34.90117],[-119.44384,34.76274],[-119.44229,34.60433],[-119.44227,34.45523],[-119.44158,34.45187],[-119.44329,34.44953],[-119.44149,34.44792],[-119.44041,34.44184],[-119.44174,34.43875],[-119.44367,34.43667],[-119.44313,34.43426],[-119.44448,34.43359],[-119.44398,34.4319],[-119.44472,34.42951],[-119.45153,34.42983],[-119.45314,34.42895],[-119.45264,34.42757],[-119.45343,34.42711],[-119.45361,34.42508],[-119.45301,34.42303],[-119.45458,34.42163]]],[[[-119.48652,34.0],[-119.49229,33.98321],[-119.48532,33.97772],[-119.47265,33.97065],[-119.45448,33.96331],[-119.43296,33.9559],[-119.417,33.95377],[-119.41134,33.95541],[-119.40293,33.95379],[-119.39618,33.95386],[-119.39337,33.95469],[-119.3894,33.95327],[-119.38046,33.95361],[-119.36283,33.95876],[-119.35186,33.96445],[-119.34154,33.96543],[-119.33279,33.96772],[-119.31844,33.9749],[-119.31161,33.98002],[-119.30409,33.98654],[-119.29624,33.99724],[-119.29647,34.0],[-119.29405,34.01108],[-119.29311,34.02015],[-119.2944,34.0275],[-119.29764,34.03658],[-119.30515,34.04745],[-119.31209,34.05439],[-119.32115,34.06061],[-119.33093,34.06506],[-119.34246,34.06896],[-119.35639,34.07081],[-119.36788,34.07042],[-119.38975,34.06603],[-119.39701,34.06379],[-119.40935,34.06679],[-119.42373,34.06769],[-119.43732,34.06772],[-119.45126,34.06644],[-119.46806,34.06314],[-119.48652,34.0]]],[[[-119.63607,33.28071],[-119.6363,33.27304],[-119.63284,33.25902],[-119.63105,33.25549],[-119.63182,33.25003],[-119.63128,33.24497],[-119.62519,33.23247],[-119.61992,33.22683],[-119.61824,33.22248],[-119.61481,33.21725],[-119.61147,33.21273],[-119.60528,33.20692],[-119.59395,33.199],[-119.58726,33.19553],[-119.58097,33.19019],[-119.57419,33.18648],[-119.56224,33.18248],[-119.55319,33.18126],[-119.54126,33.17647],[-119.52671,33.17266],[-119.512,33.16776],[-119.49142,33.16701],[-119.47649,33.16349],[-119.47223,33.1644],[-119.44497,33.16527],[-119.43372,33.16699],[-119.39454,33.18084],[-119.38147,33.18947],[-119.37594,33.19219],[-119.36845,33.2026],[-119.36244,33.21482],[-119.3607,33.22145],[-119.36013,33.23487],[-119.36093,33.24206],[-119.36212,33.24522],[-119.36723,33.2534],[-119.37594,33.26323],[-119.37594,33.26476],[-119.37973,33.26763],[-119.40539,33.28351],[-119.42618,33.29894],[-119.43,33.30103],[-119.4713,33.31683],[-119.49512,33.32715],[-119.51914,33.3337],[-119.52965,33.33522],[-119.54354,33.33416],[-119.56493,33.32764],[-119.57491,33.32828],[-119.58268,33.32779],[-119.59252,33.32582],[-119.59922,33.32328],[-119.61453,33.3148],[-119.62594,33.30504],[-119.63382,33.28932],[-119.63607,33.28071]]]]}}]}
